[{"OBJECT_NAME":"GAOFEN-11 02","OBJECT_ID":"2020-064A","EPOCH":"2026-03-09T22:52:21.157824","MEAN_MOTION":15.23715176,"ECCENTRICITY":0.0015622,"INCLINATION":97.4982,"RA_OF_ASC_NODE":194.9416,"ARG_OF_PERICENTER":294.7165,"MEAN_ANOMALY":65.2445,"EPHEMERIS_TYPE":0,"CLASSIFICATION_TYPE":"U","NORAD_CAT_ID":46396,"ELEMENT_SET_NO":999,"REV_AT_EPOCH":30642,"BSTAR":0.00039263481,"MEAN_MOTION_DOT":9.392e-5,"MEAN_MOTION_DDOT":0},{"OBJECT_NAME":"STARLINK-5228","OBJECT_ID":"2022-141Z","EPOCH":"2026-03-09T22:00:01.999584","MEAN_MOTION":15.24334038,"ECCENTRICITY":0.00015239,"INCLINATION":53.2168,"RA_OF_ASC_NODE":2.2067,"ARG_OF_PERICENTER":88.3857,"MEAN_ANOMALY":310.0088,"EPHEMERIS_TYPE":0,"CLASSIFICATION_TYPE":"U","NORAD_CAT_ID":54180,"ELEMENT_SET_NO":999,"REV_AT_EPOCH":574,"BSTAR":0.0018120877,"MEAN_MOTION_DOT":0.0004484,"MEAN_MOTION_DDOT":0}]
